STARLINK-32445          
1 61546C 24184Q   26109.45395833 -.00006382  00000+0 -21535-3 0  1091
2 61546  53.1572 184.8226 0001182  79.9700 329.8097 15.30156255    14
STARLINK-32411          
1 61547C 24184R   26109.39215278 -.00008718  00000+0 -29415-3 0  1099
2 61547  53.1565 184.9327 0001259  88.5025  67.8698 15.30161071    19
STARLINK-32424          
1 61548C 24184S   26109.44909722 -.00008367  00000+0 -28231-3 0  1095
2 61548  53.1566 184.8090 0001253  81.5627 318.8659 15.30158587    16
STARLINK-32389          
1 61549C 24184T   26109.40465278 -.00004488  00000+0 -15143-3 0  1093
2 61549  53.1565 184.8452 0001219  86.2758 156.4505 15.30154770    13
STARLINK-32476          
1 61550C 24184U   26109.41576389 -.00004534  00000+0 -15298-3 0  1095
2 61550  53.1563 184.9278 0001205  85.9928 148.1804 15.30159862    17
STARLINK-32366          
1 61551C 24184V   26109.42756944 -.00004594  00000+0 -15489-3 0  1092
2 61551  53.1577 184.9800 0001237  80.5001 166.3449 15.30179986    18
STARLINK-11356 [DTC]    
1 61574C 24187A   26109.36854167  .00065883  00000+0  54330-3 0  1093
2 61574  53.1571  95.7473 0001356  61.4514 134.3828 15.69649810    17
STARLINK-11376 [DTC]    
1 61575C 24187B   26109.44562500  .00097760  00000+0  80599-3 0  1095
2 61575  53.1568  95.3100 0001246  68.5425 230.8647 15.69639094    18
STARLINK-11372 [DTC]    
1 61576C 24187C   26109.40812500  .00088473  00000+0  72949-3 0  1091
2 61576  53.1571  95.4384 0001264  71.2456  43.8758 15.69641571    11
STARLINK-11375 [DTC]    
1 61577C 24187D   26109.42756944  .00112700  00000+0  92855-3 0  1092
2 61577  53.1571  95.2857 0000972  70.9177 181.8301 15.69648252    16
STARLINK-11285 [DTC]    
1 61578C 24187E   26109.40604167  .00094226  00000+0  77699-3 0  1091
2 61578  53.1570  95.3353 0001208  70.5818  88.2416 15.69636781    10
STARLINK-11275 [DTC]    
1 61579C 24187F   26109.45187500  .00068378  00000+0  56385-3 0  1092
2 61579  53.1570  95.0519 0001213  74.2885  11.4195 15.69649623    14
STARLINK-11342 [DTC]    
1 61580C 24187G   26109.39493056  .00042134  00000+0  34751-3 0  1098
2 61580  53.1573  95.2752 0001195  75.1922  76.2856 15.69657991    11
STARLINK-11374 [DTC]    
1 61581C 24187H   26109.42062500  .00097705  00000+0  80531-3 0  1090
2 61581  53.1573  95.8264 0001328  63.7748 260.1239 15.69645802    10
STARLINK-11373 [DTC]    
1 61582C 24187J   26109.44076389  .00049222  00000+0  40615-3 0  1093
2 61582  53.1573  95.6702 0001124  84.4936  21.1099 15.69643837    14
STARLINK-11368 [DTC]    
1 61583C 24187K   26109.41993056  .00096928  00000+0  79909-3 0  1093
2 61583  53.1573  95.7164 0001315  65.4321 310.0116 15.69640718    12
STARLINK-11370 [DTC]    
1 61584C 24187L   26109.42201389  .00068393  00000+0  56417-3 0  1090
2 61584  53.1573  95.6492 0001263 111.8579 303.1297 15.69641045    16
STARLINK-11361 [DTC]    
1 61585C 24187M   26109.44909722  .00095922  00000+0  79066-3 0  1092
2 61585  53.1567  95.4587 0001236  67.3232 168.5040 15.69645548    15
STARLINK-11360 [DTC]    
1 61586C 24187N   26109.42756944  .00092752  00000+0  76459-3 0  1098
2 61586  53.1568  95.5074 0001285  69.0519  72.8015 15.69645107    10
STARLINK-32353          
1 61587C 24187P   26109.45395833  .00001488  00000+0  50160-4 0  1096
2 61587  53.1577 235.6087 0001265  93.8162 344.7220 15.30174151    12
STARLINK-32325          
1 61588C 24187Q   26109.38868056  .00024726  00000+0  83390-3 0  1091
2 61588  53.1587 236.1262 0001030  98.9828 235.0644 15.30158021    10
STARLINK-32416          
1 61589C 24187R   26109.44979167  .00003660  00000+0  12338-3 0  1093
2 61589  53.1578 220.2565 0001077 106.4391 181.8417 15.30182961    18
STARLINK-32413          
1 61590C 24187S   26109.45118056 -.00008783  00000+0 -29596-3 0  1095
2 61590  53.1605 236.0092 0001192 102.2266 123.1975 15.30203776    10
STARLINK-32409          
1 61591C 24187T   26109.41090278  .00007358  00000+0  24807-3 0  1092
2 61591  53.1589 221.0094 0001073 100.9292  42.2692 15.30176939    17
STARLINK-32422          
1 61592C 24187U   26109.40256944 -.00011201  00000+0 -37735-3 0  1094
2 61592  53.1578 220.4590 0001248 102.6865 291.2655 15.30212533    15
STARLINK-32397          
1 61593C 24187V   26109.42409722  .00009563  00000+0  32237-3 0  1099
2 61593  53.1599 233.8746 0001292  90.5067  52.5683 15.30179338    12
STARLINK-32302          
1 61621C 24191A   26109.41298611  .00039556  00000+0  14335-2 0  1091
2 61621  43.0009 284.2594 0001346 270.4610 229.2549 15.27540891    18
STARLINK-32364          
1 61622C 24191B   26109.37062500  .00035608  00000+0  12906-2 0  1099
2 61622  43.0023 284.6352 0001431 272.4216 297.4696 15.27538065    10
STARLINK-32331          
1 61623C 24191C   26109.38798611  .00040596  00000+0  14704-2 0  1090
2 61623  43.0024 288.1683 0001553 258.5808 338.7971 15.27558012    14
STARLINK-32398          
1 61624C 24191D   26109.42618056  .00044013  00000+0  15942-2 0  1093
2 61624  43.0025 284.4774 0001501 268.5864 183.4805 15.27556249    13
STARLINK-32365          
1 61625C 24191E   26109.39840278  .00046694  00000+0  16912-2 0  1098
2 61625  43.0012 284.3751 0001439 255.4989 149.7725 15.27556555    13
STARLINK-32333          
1 61626C 24191F   26109.41993056  .00047979  00000+0  17383-2 0  1095
2 61626  43.0025 288.1418 0001527 271.2099  78.3543 15.27545633    16
STARLINK-32399          
1 61627C 24191G   26109.39770833  .00039939  00000+0  14468-2 0  1097
2 61627  43.0009 277.1750 0001496 253.4787 262.9276 15.27554991    18
STARLINK-32421          
1 61628C 24191H   26109.43381944  .00042336  00000+0  15337-2 0  1095
2 61628  43.0022 284.5167 0001873 257.2707 201.5080 15.27550481    13
STARLINK-32403          
1 61629C 24191J   26109.44631944  .00039411  00000+0  14273-2 0  1093
2 61629  43.0025 284.3108 0001507 261.0497 323.1273 15.27563365    13
STARLINK-32390          
1 61630C 24191K   26109.42340278  .00049507  00000+0  17949-2 0  1090
2 61630  43.0008 284.6761 0001801 250.2104 108.7989 15.27522037    18
STARLINK-32348          
1 61631C 24191L   26109.42131944  .00047055  00000+0  17049-2 0  1096
2 61631  43.0027 288.0289 0001533 271.4280 128.2547 15.27543664    11
STARLINK-32455          
1 61632C 24191M   26109.45118056  .00040025  00000+0  14500-2 0  1098
2 61632  43.0015 288.0639 0001767 271.2556 207.9330 15.27550704    19
STARLINK-32396          
1 61633C 24191N   26109.41993056  .00049370  00000+0  17886-2 0  1098
2 61633  43.0026 288.0895 0001883 261.3985 109.4259 15.27545306    19
STARLINK-32355          
1 61634C 24191P   26109.45395833  .00038891  00000+0  14082-2 0  1093
2 61634  43.0009 288.0824 0001820 270.8336 209.4563 15.27568022    18
STARLINK-32370          
1 61635C 24191Q   26109.43659722  .00046031  00000+0  16675-2 0  1097
2 61635  43.0002 284.0726 0001363 267.8103  23.1110 15.27550143    13
STARLINK-32405          
1 61636C 24191R   26109.38590278  .00040248  00000+0  14585-2 0  1094
2 61636  43.0009 288.5178 0001617 269.0817 175.3377 15.27541551    17
STARLINK-32419          
1 61637C 24191S   26109.41854167  .00049385  00000+0  17893-2 0  1095
2 61637  43.0013 284.6509 0001785 270.6115  82.8159 15.27542173    14
STARLINK-32320          
1 61638C 24191T   26109.44701389  .00045888  00000+0  16627-2 0  1094
2 61638  43.0007 288.2224 0001533 272.5025 127.1497 15.27543619    18
STARLINK-32341          
1 61639C 24191U   26109.44006944  .00038327  00000+0  13885-2 0  1093
2 61639  43.0027 284.4299 0001649 272.3631 242.0413 15.27551802    18
STARLINK-32339          
1 61640C 24191V   26109.44215278  .00046689  00000+0  16901-2 0  1099
2 61640  42.9997 283.9906 0001371 263.4108  79.2795 15.27573254    13
STARLINK-32327          
1 61641C 24191W   26109.37131944  .00038066  00000+0  13796-2 0  1098
2 61641  43.0020 284.5761 0001402 270.3146 324.6283 15.27540056    16
STARLINK-32264          
1 61642C 24191X   26109.40048611  .00136620  00000+0  32141-2 0  1091
2 61642  42.9975 284.4251 0013525 311.2387  78.3917 15.40955466    15
STARLINK-32337          
1 61643C 24191Y   26109.39909722  .00048810  00000+0  17679-2 0  1091
2 61643  43.0025 284.5221 0001748 260.9838  84.4320 15.27553306    15
STARLINK-32238          
1 61661C 24193A   26109.38729167  .00028914  00000+0  97497-3 0  1095
2 61661  53.1572 262.1613 0001195  96.8527 310.1372 15.30161371    15
STARLINK-32310          
1 61662C 24193B   26109.37826389  .00038790  00000+0  13078-2 0  1094
2 61662  53.1598 261.9841 0000709  97.4308  10.3036 15.30160862    18
STARLINK-32308          
1 61663C 24193C   26109.43173611  .00017544  00000+0  59155-3 0  1096
2 61663  53.1592 261.4590 0001377  98.3511  83.7132 15.30168253    10
STARLINK-32301          
1 61664C 24193D   26109.43868056  .00028319  00000+0  95481-3 0  1095
2 61664  53.1570 262.0042 0001168  99.8048 189.7051 15.30165127    19
STARLINK-32439          
1 61665C 24193E   26109.39423611  .00022657  00000+0  76428-3 0  1094
2 61665  53.1575 262.2628 0001258 100.4542 275.0139 15.30151945    14
STARLINK-32428          
1 61666C 24193F   26109.41090278  .00023056  00000+0  77734-3 0  1092
2 61666  53.1603 261.7047 0001208  98.7113 252.9025 15.30168179    19
STARLINK-32414          
1 61667C 24193G   26109.44909722  .00025346  00000+0  85462-3 0  1090
2 61667  53.1573 261.8859 0001205  96.3172 285.5082 15.30165168    14
STARLINK-32441          
1 61668C 24193H   26109.40465278  .00038465  00000+0  12969-2 0  1097
2 61668  53.1582 261.9993 0001033  75.7775 107.5989 15.30159654    16
STARLINK-32400          
1 61669C 24193J   26109.40743056  .00042025  00000+0  14166-2 0  1099
2 61669  53.1600 259.6559 0000979  99.3054 201.1795 15.30167220    14
STARLINK-32449          
1 61670C 24193K   26109.42965278  .00035626  00000+0  12007-2 0  1096
2 61670  53.1593 261.8141 0001208 100.8053 255.2612 15.30173259    19
